SAUDISAT 1C (SO-50)     
1 27607U 02058C   26170.85258547  .00000740  00000+0  10489-3 0  9992
2 27607  64.5513 120.7383 0075161 261.9782  97.2791 14.83051819264857
SAUDISAT 2              
1 28371U 04025F   26170.57045906  .00000171  00000+0  49334-4 0  9999
2 28371  98.5507 170.6140 0023518 290.5721  69.2953 14.56685005166097
SAUDISAT 3              
1 31118U 07012B   26170.77476885  .00000191  00000+0  39027-4 0  9997
2 31118  98.1456 121.1772 0013793 215.0823 144.9476 14.71426847 28126
PISAT                   
1 41784U 16059B   26170.45994244  .00000646  00000+0  11764-3 0  9999
2 41784  97.8178 170.8151 0028576 195.3619 164.6722 14.68986663520070
FLYING LAPTOP           
1 42831U 17042G   26170.91847649  .00002839  00000+0  22509-3 0  9998
2 42831  97.4702 326.3461 0019679 112.8380 247.4926 15.01160904486862
SALSAT                  
1 46495U 20068K   26170.95810387  .00006379  00000+0  22355-3 0  9995
2 46495  97.8854 174.1914 0007892 296.5001  63.5428 15.29832652315782
